STARLINK-31389          
1 59013U 24036R   26023.72318829  .00000657  00000+0  34316-4 0  9994
2 59013  53.1593 287.3515 0001680  68.2952 291.8228 15.30200408108446
STARLINK-31454          
1 59014U 24036S   26023.71685973  .00004633  00000+0  16846-3 0  9996
2 59014  53.1602 287.3066 0001323  98.1894 261.9257 15.30200303108433
STARLINK-31521          
1 59015U 24036T   26023.45454472  .00007689  00000+0  27157-3 0  9997
2 59015  53.1612 288.5151 0001276  83.0892 277.0254 15.30187984108390
STARLINK-31526          
1 59016U 24036U   26023.91170481  .00007533  00000+0  26638-3 0  9995
2 59016  53.1596 260.7774 0001222  77.6832 282.4305 15.30178829108822
STARLINK-31406          
1 59017U 24036V   26023.98063225 -.00000376  00000+0 -56437-6 0  9993
2 59017  53.1591 272.6276 0001493 100.1109 260.0061 15.30174791108663
STARLINK-31527          
1 59018U 24036W   26023.77161510  .00021382  00000+0  73158-3 0  9991
2 59018  53.1601 286.9470 0001107 109.0208 251.0913 15.30216859108444
STARLINK-31436          
1 59019U 24036X   26023.98761583 -.00000102  00000+0  86749-5 0  9991
2 59019  53.1625 286.1528 0000606 136.5879 223.5169 15.30194296108479
STARLINK-30996          
1 59023U 24038A   26024.00367324  .00005189  00000+0  19782-3 0  9997
2 59023  43.0043 279.4181 0001297 291.2294  68.8419 15.27603420109292
STARLINK-31006          
1 59024U 24038B   26023.91909463  .00011392  00000+0  42269-3 0  9992
2 59024  42.9981 229.4468 0001371 263.5435  96.5261 15.27594377108491
STARLINK-31178          
1 59025U 24038C   26023.75241479  .00007029  00000+0  26467-3 0  9995
2 59025  42.9993 280.9731 0001062 281.8445  78.2287 15.27582403107773
STARLINK-31227          
1 59026U 24038D   26024.00002315  .01989034  25005-2  42513-2 0  9999
2 59026  42.9959 270.3487 0003573 240.8540 227.3029 15.98327631  5829
STARLINK-30863          
1 59027U 24038E   26023.83963763  .00001956  00000+0  80549-4 0  9998
2 59027  43.0061 280.7459 0000948 258.4631 101.6114 15.27588989107783
STARLINK-31206          
1 59028U 24038F   26023.95038839 -.00002810  00000+0 -92629-4 0  9993
2 59028  43.0002 214.6788 0001617 270.1692  89.8975 15.27576077108689
STARLINK-31224          
1 59029U 24038G   26023.98568854  .00002825  00000+0  11212-3 0  9994
2 59029  43.0005 279.2791 0001331 279.1532  80.9169 15.27590103107928
STARLINK-31186          
1 59030U 24038H   26023.42934791  .00003239  00000+0  12715-3 0  9991
2 59030  42.9952 282.8474 0000318 292.6388  67.4430 15.27578383107837
STARLINK-31211          
1 59031U 24038J   26023.98055222  .00005549  00000+0  21082-3 0  9999
2 59031  42.9995 279.2398 0001377 280.5370  79.5326 15.27608459107817
