[{"OBJECT_NAME":"STARLINK-31389","OBJECT_ID":"2024-036R","EPOCH":"2026-01-23T17:21:23.468256","MEAN_MOTION":15.30200408,"ECCENTRICITY":0.00016809,"INCLINATION":53.1593,"RA_OF_ASC_NODE":287.3515,"ARG_OF_PERICENTER":68.2952,"MEAN_ANOMALY":291.8228,"EPHEMERIS_TYPE":0,"CLASSIFICATION_TYPE":"U","NORAD_CAT_ID":59013,"ELEMENT_SET_NO":999,"REV_AT_EPOCH":10844,"BSTAR":3.4315517e-5,"MEAN_MOTION_DOT":6.57e-6,"MEAN_MOTION_DDOT":0},{"OBJECT_NAME":"STARLINK-31454","OBJECT_ID":"2024-036S","EPOCH":"2026-01-23T17:12:16.680672","MEAN_MOTION":15.30200303,"ECCENTRICITY":0.00013232,"INCLINATION":53.1602,"RA_OF_ASC_NODE":287.3066,"ARG_OF_PERICENTER":98.1894,"MEAN_ANOMALY":261.9257,"EPHEMERIS_TYPE":0,"CLASSIFICATION_TYPE":"U","NORAD_CAT_ID":59014,"ELEMENT_SET_NO":999,"REV_AT_EPOCH":10843,"BSTAR":0.00016845649,"MEAN_MOTION_DOT":4.633e-5,"MEAN_MOTION_DDOT":0},{"OBJECT_NAME":"STARLINK-31521","OBJECT_ID":"2024-036T","EPOCH":"2026-01-23T10:54:32.663808","MEAN_MOTION":15.30187984,"ECCENTRICITY":0.00012767,"INCLINATION":53.1612,"RA_OF_ASC_NODE":288.5151,"ARG_OF_PERICENTER":83.0892,"MEAN_ANOMALY":277.0254,"EPHEMERIS_TYPE":0,"CLASSIFICATION_TYPE":"U","NORAD_CAT_ID":59015,"ELEMENT_SET_NO":999,"REV_AT_EPOCH":10839,"BSTAR":0.00027156624,"MEAN_MOTION_DOT":7.689e-5,"MEAN_MOTION_DDOT":0},{"OBJECT_NAME":"STARLINK-31526","OBJECT_ID":"2024-036U","EPOCH":"2026-01-23T21:52:51.295584","MEAN_MOTION":15.30178829,"ECCENTRICITY":0.00012229,"INCLINATION":53.1596,"RA_OF_ASC_NODE":260.7774,"ARG_OF_PERICENTER":77.6832,"MEAN_ANOMALY":282.4305,"EPHEMERIS_TYPE":0,"CLASSIFICATION_TYPE":"U","NORAD_CAT_ID":59016,"ELEMENT_SET_NO":999,"REV_AT_EPOCH":10882,"BSTAR":0.00026638311,"MEAN_MOTION_DOT":7.533e-5,"MEAN_MOTION_DDOT":0},{"OBJECT_NAME":"STARLINK-31406","OBJECT_ID":"2024-036V","EPOCH":"2026-01-23T23:32:06.626400","MEAN_MOTION":15.30174791,"ECCENTRICITY":0.0001493,"INCLINATION":53.1591,"RA_OF_ASC_NODE":272.6276,"ARG_OF_PERICENTER":100.1109,"MEAN_ANOMALY":260.0061,"EPHEMERIS_TYPE":0,"CLASSIFICATION_TYPE":"U","NORAD_CAT_ID":59017,"ELEMENT_SET_NO":999,"REV_AT_EPOCH":10866,"BSTAR":-5.6437e-7,"MEAN_MOTION_DOT":-3.76e-6,"MEAN_MOTION_DDOT":0},{"OBJECT_NAME":"STARLINK-31527","OBJECT_ID":"2024-036W","EPOCH":"2026-01-23T18:31:07.544640","MEAN_MOTION":15.30216859,"ECCENTRICITY":0.00011077,"INCLINATION":53.1601,"RA_OF_ASC_NODE":286.947,"ARG_OF_PERICENTER":109.0208,"MEAN_ANOMALY":251.0913,"EPHEMERIS_TYPE":0,"CLASSIFICATION_TYPE":"U","NORAD_CAT_ID":59018,"ELEMENT_SET_NO":999,"REV_AT_EPOCH":10844,"BSTAR":0.00073157788,"MEAN_MOTION_DOT":0.00021382,"MEAN_MOTION_DDOT":0},{"OBJECT_NAME":"STARLINK-31436","OBJECT_ID":"2024-036X","EPOCH":"2026-01-23T23:42:10.007712","MEAN_MOTION":15.30194296,"ECCENTRICITY":6.066e-5,"INCLINATION":53.1625,"RA_OF_ASC_NODE":286.1528,"ARG_OF_PERICENTER":136.5879,"MEAN_ANOMALY":223.5169,"EPHEMERIS_TYPE":0,"CLASSIFICATION_TYPE":"U","NORAD_CAT_ID":59019,"ELEMENT_SET_NO":999,"REV_AT_EPOCH":10847,"BSTAR":8.674897e-6,"MEAN_MOTION_DOT":-1.02e-6,"MEAN_MOTION_DDOT":0},{"OBJECT_NAME":"STARLINK-30996","OBJECT_ID":"2024-038A","EPOCH":"2026-01-24T00:05:17.367936","MEAN_MOTION":15.2760342,"ECCENTRICITY":0.0001297,"INCLINATION":43.0043,"RA_OF_ASC_NODE":279.4181,"ARG_OF_PERICENTER":291.2294,"MEAN_ANOMALY":68.8419,"EPHEMERIS_TYPE":0,"CLASSIFICATION_TYPE":"U","NORAD_CAT_ID":59023,"ELEMENT_SET_NO":999,"REV_AT_EPOCH":10929,"BSTAR":0.00019781505,"MEAN_MOTION_DOT":5.189e-5,"MEAN_MOTION_DDOT":0},{"OBJECT_NAME":"STARLINK-31006","OBJECT_ID":"2024-038B","EPOCH":"2026-01-23T22:03:29.776032","MEAN_MOTION":15.27594377,"ECCENTRICITY":0.00013716,"INCLINATION":42.9981,"RA_OF_ASC_NODE":229.4468,"ARG_OF_PERICENTER":263.5435,"MEAN_ANOMALY":96.5261,"EPHEMERIS_TYPE":0,"CLASSIFICATION_TYPE":"U","NORAD_CAT_ID":59024,"ELEMENT_SET_NO":999,"REV_AT_EPOCH":10849,"BSTAR":0.00042268817,"MEAN_MOTION_DOT":0.00011392,"MEAN_MOTION_DDOT":0},{"OBJECT_NAME":"STARLINK-31178","OBJECT_ID":"2024-038C","EPOCH":"2026-01-23T18:03:28.637856","MEAN_MOTION":15.27582403,"ECCENTRICITY":0.00010623,"INCLINATION":42.9993,"RA_OF_ASC_NODE":280.9731,"ARG_OF_PERICENTER":281.8445,"MEAN_ANOMALY":78.2287,"EPHEMERIS_TYPE":0,"CLASSIFICATION_TYPE":"U","NORAD_CAT_ID":59025,"ELEMENT_SET_NO":999,"REV_AT_EPOCH":10777,"BSTAR":0.00026467008,"MEAN_MOTION_DOT":7.029e-5,"MEAN_MOTION_DDOT":0},{"OBJECT_NAME":"STARLINK-31227","OBJECT_ID":"2024-038D","EPOCH":"2026-01-24T00:00:02.000160","MEAN_MOTION":15.98327631,"ECCENTRICITY":0.00035738,"INCLINATION":42.9959,"RA_OF_ASC_NODE":270.3487,"ARG_OF_PERICENTER":240.854,"MEAN_ANOMALY":227.3029,"EPHEMERIS_TYPE":0,"CLASSIFICATION_TYPE":"U","NORAD_CAT_ID":59026,"ELEMENT_SET_NO":999,"REV_AT_EPOCH":582,"BSTAR":0.0042512897,"MEAN_MOTION_DOT":0.01989034,"MEAN_MOTION_DDOT":0.0025005073},{"OBJECT_NAME":"STARLINK-30863","OBJECT_ID":"2024-038E","EPOCH":"2026-01-23T20:09:04.691232","MEAN_MOTION":15.27588989,"ECCENTRICITY":9.486e-5,"INCLINATION":43.0061,"RA_OF_ASC_NODE":280.7459,"ARG_OF_PERICENTER":258.4631,"MEAN_ANOMALY":101.6114,"EPHEMERIS_TYPE":0,"CLASSIFICATION_TYPE":"U","NORAD_CAT_ID":59027,"ELEMENT_SET_NO":999,"REV_AT_EPOCH":10778,"BSTAR":8.0548966e-5,"MEAN_MOTION_DOT":1.956e-5,"MEAN_MOTION_DDOT":0},{"OBJECT_NAME":"STARLINK-31206","OBJECT_ID":"2024-038F","EPOCH":"2026-01-23T22:48:33.556896","MEAN_MOTION":15.27576077,"ECCENTRICITY":0.0001617,"INCLINATION":43.0002,"RA_OF_ASC_NODE":214.6788,"ARG_OF_PERICENTER":270.1692,"MEAN_ANOMALY":89.8975,"EPHEMERIS_TYPE":0,"CLASSIFICATION_TYPE":"U","NORAD_CAT_ID":59028,"ELEMENT_SET_NO":999,"REV_AT_EPOCH":10868,"BSTAR":-9.2629002e-5,"MEAN_MOTION_DOT":-2.81e-5,"MEAN_MOTION_DDOT":0},{"OBJECT_NAME":"STARLINK-31224","OBJECT_ID":"2024-038G","EPOCH":"2026-01-23T23:39:23.489856","MEAN_MOTION":15.27590103,"ECCENTRICITY":0.00013319,"INCLINATION":43.0005,"RA_OF_ASC_NODE":279.2791,"ARG_OF_PERICENTER":279.1532,"MEAN_ANOMALY":80.9169,"EPHEMERIS_TYPE":0,"CLASSIFICATION_TYPE":"U","NORAD_CAT_ID":59029,"ELEMENT_SET_NO":999,"REV_AT_EPOCH":10792,"BSTAR":0.0001121172,"MEAN_MOTION_DOT":2.825e-5,"MEAN_MOTION_DDOT":0},{"OBJECT_NAME":"STARLINK-31186","OBJECT_ID":"2024-038H","EPOCH":"2026-01-23T10:18:15.659424","MEAN_MOTION":15.27578383,"ECCENTRICITY":3.181e-5,"INCLINATION":42.9952,"RA_OF_ASC_NODE":282.8474,"ARG_OF_PERICENTER":292.6388,"MEAN_ANOMALY":67.443,"EPHEMERIS_TYPE":0,"CLASSIFICATION_TYPE":"U","NORAD_CAT_ID":59030,"ELEMENT_SET_NO":999,"REV_AT_EPOCH":10783,"BSTAR":0.00012714853,"MEAN_MOTION_DOT":3.239e-5,"MEAN_MOTION_DDOT":0},{"OBJECT_NAME":"STARLINK-31211","OBJECT_ID":"2024-038J","EPOCH":"2026-01-23T23:31:59.711808","MEAN_MOTION":15.27608459,"ECCENTRICITY":0.00013772,"INCLINATION":42.9995,"RA_OF_ASC_NODE":279.2398,"ARG_OF_PERICENTER":280.537,"MEAN_ANOMALY":79.5326,"EPHEMERIS_TYPE":0,"CLASSIFICATION_TYPE":"U","NORAD_CAT_ID":59031,"ELEMENT_SET_NO":999,"REV_AT_EPOCH":10781,"BSTAR":0.00021082244,"MEAN_MOTION_DOT":5.549e-5,"MEAN_MOTION_DDOT":0}]
